{
"type": "FeatureCollection",
"features": [
{ "type": "Feature", "properties": { "raster_val": 1 }, "geometry": { "type": "Polygon", "coordinates": [ [ [ 8570191.527954721823335, 1052981.269846278708428 ], [ 8570253.545268518850207, 1052981.269846278708428 ], [ 8570253.545268518850207, 1052950.261189379962161 ], [ 8570222.536611620336771, 1052950.261189379962161 ], [ 8570222.536611620336771, 1052764.209247987018898 ], [ 8570067.493327125906944, 1052764.209247987018898 ], [ 8570067.493327125906944, 1052640.174620391801 ], [ 8569974.467356430366635, 1052640.174620391801 ], [ 8569974.467356430366635, 1052330.088051403407007 ], [ 8569943.458699531853199, 1052330.088051403407007 ], [ 8569943.458699531853199, 1052671.183277290547267 ], [ 8570036.484670227393508, 1052671.183277290547267 ], [ 8570036.484670227393508, 1052795.217904885765165 ], [ 8570191.527954721823335, 1052795.217904885765165 ], [ 8570191.527954721823335, 1052981.269846278708428 ] ] ] } },
{ "type": "Feature", "properties": { "raster_val": 1 }, "geometry": { "type": "Polygon", "coordinates": [ [ [ 8567090.662264840677381, 1051895.966854820027947 ], [ 8567090.662264840677381, 1051864.95819792128168 ], [ 8567214.696892434731126, 1051864.95819792128168 ], [ 8567214.696892434731126, 1051740.923570325830951 ], [ 8567524.783461423590779, 1051740.923570325830951 ], [ 8567524.783461423590779, 1051647.89759962935932 ], [ 8567617.809432119131088, 1051647.89759962935932 ], [ 8567617.809432119131088, 1051554.871628932887688 ], [ 8567927.896001107990742, 1051554.871628932887688 ], [ 8567927.896001107990742, 1051399.828344438923523 ], [ 8567958.904658006504178, 1051399.828344438923523 ], [ 8567958.904658006504178, 1051585.880285831866786 ], [ 8567648.81808901950717, 1051585.880285831866786 ], [ 8567648.81808901950717, 1051678.906256528338417 ], [ 8567555.792118322104216, 1051678.906256528338417 ], [ 8567555.792118322104216, 1051771.932227224810049 ], [ 8567245.705549335107207, 1051771.932227224810049 ], [ 8567245.705549335107207, 1051895.966854820027947 ], [ 8567090.662264840677381, 1051895.966854820027947 ] ] ] } },
{ "type": "Feature", "properties": { "raster_val": 1 }, "geometry": { "type": "Polygon", "coordinates": [ [ [ 8568517.060482185333967, 1050779.655206462368369 ], [ 8568517.060482185333967, 1050748.646549563622102 ], [ 8568734.121080476790667, 1050748.646549563622102 ], [ 8568734.121080476790667, 1050438.559980575460941 ], [ 8568827.147051174193621, 1050438.559980575460941 ], [ 8568827.147051174193621, 1050345.534009878989309 ], [ 8568982.190335668623447, 1050345.534009878989309 ], [ 8568982.190335668623447, 1050438.559980575460941 ], [ 8569075.216306364163756, 1050438.559980575460941 ], [ 8569075.216306364163756, 1050500.577294373186305 ], [ 8569106.224963262677193, 1050500.577294373186305 ], [ 8569106.224963262677193, 1050531.585951271932572 ], [ 8569044.20764946565032, 1050531.585951271932572 ], [ 8569044.20764946565032, 1050469.568637474207208 ], [ 8568951.181678770110011, 1050469.568637474207208 ], [ 8568951.181678770110011, 1050376.542666777735576 ], [ 8568858.155708072707057, 1050376.542666777735576 ], [ 8568858.155708072707057, 1050469.568637474207208 ], [ 8568765.129737377166748, 1050469.568637474207208 ], [ 8568765.129737377166748, 1050779.655206462368369 ], [ 8568517.060482185333967, 1050779.655206462368369 ] ] ] } },
{ "type": "Feature", "properties": { "raster_val": 1 }, "geometry": { "type": "Polygon", "coordinates": [ [ [ 8572393.142594538629055, 1050531.585951271932572 ], [ 8572424.151251437142491, 1050531.585951271932572 ], [ 8572424.151251437142491, 1049911.412813295610249 ], [ 8572331.125280741602182, 1049911.412813295610249 ], [ 8572331.125280741602182, 1049756.369528801413253 ], [ 8572424.151251437142491, 1049756.369528801413253 ], [ 8572424.151251437142491, 1049570.31758740846999 ], [ 8572517.177222134545445, 1049570.31758740846999 ], [ 8572517.177222134545445, 1049446.282959813252091 ], [ 8572641.211849728599191, 1049446.282959813252091 ], [ 8572641.211849728599191, 1049260.231018420308828 ], [ 8572796.255134223029017, 1049260.231018420308828 ], [ 8572796.255134223029017, 1049167.205047723837197 ], [ 8573075.333046311512589, 1049167.205047723837197 ], [ 8573075.333046311512589, 1049260.231018420308828 ], [ 8573385.419615300372243, 1049260.231018420308828 ], [ 8573385.419615300372243, 1049322.248332217801362 ], [ 8573509.454242896288633, 1049322.248332217801362 ], [ 8573509.454242896288633, 1049415.274302914272994 ], [ 8573540.46289979480207, 1049415.274302914272994 ], [ 8573540.46289979480207, 1049291.239675319055095 ], [ 8573416.428272198885679, 1049291.239675319055095 ], [ 8573416.428272198885679, 1049229.222361521562561 ], [ 8573106.341703211888671, 1049229.222361521562561 ], [ 8573106.341703211888671, 1049136.19639082509093 ], [ 8572765.246477324515581, 1049136.19639082509093 ], [ 8572765.246477324515581, 1049229.222361521562561 ], [ 8572610.203192830085754, 1049229.222361521562561 ], [ 8572610.203192830085754, 1049415.274302914272994 ], [ 8572486.168565234169364, 1049415.274302914272994 ], [ 8572486.168565234169364, 1049539.308930509723723 ], [ 8572393.142594538629055, 1049539.308930509723723 ], [ 8572393.142594538629055, 1049725.360871902666986 ], [ 8572300.116623841226101, 1049725.360871902666986 ], [ 8572300.116623841226101, 1049942.421470194356516 ], [ 8572393.142594538629055, 1049942.421470194356516 ], [ 8572393.142594538629055, 1050531.585951271932572 ] ] ] } },
{ "type": "Feature", "properties": { "raster_val": 1 }, "geometry": { "type": "Polygon", "coordinates": [ [ [ 8570780.69243579916656, 1046717.521152716944925 ], [ 8571121.78766168653965, 1046717.521152716944925 ], [ 8571121.78766168653965, 1046593.486525121727027 ], [ 8571276.830946180969477, 1046593.486525121727027 ], [ 8571276.830946180969477, 1046407.434583728783764 ], [ 8571431.874230675399303, 1046407.434583728783764 ], [ 8571431.874230675399303, 1046376.425926829921082 ], [ 8571245.82228928245604, 1046376.425926829921082 ], [ 8571245.82228928245604, 1046562.477868222864345 ], [ 8571090.779004788026214, 1046562.477868222864345 ], [ 8571090.779004788026214, 1046686.512495818198659 ], [ 8570811.701092697679996, 1046686.512495818198659 ], [ 8570811.701092697679996, 1046469.451897526392713 ], [ 8570563.631837507709861, 1046469.451897526392713 ], [ 8570563.631837507709861, 1046562.477868222864345 ], [ 8570346.571239216253161, 1046562.477868222864345 ], [ 8570346.571239216253161, 1046686.512495818198659 ], [ 8570377.579896114766598, 1046686.512495818198659 ], [ 8570377.579896114766598, 1046593.486525121727027 ], [ 8570594.640494406223297, 1046593.486525121727027 ], [ 8570594.640494406223297, 1046500.460554425255395 ], [ 8570780.69243579916656, 1046500.460554425255395 ], [ 8570780.69243579916656, 1046717.521152716944925 ] ] ] } },
{ "type": "Feature", "properties": { "raster_val": 1 }, "geometry": { "type": "Polygon", "coordinates": [ [ [ 8569137.233620163053274, 1046717.521152716944925 ], [ 8569137.233620163053274, 1046376.425926829921082 ], [ 8569292.276904655620456, 1046376.425926829921082 ], [ 8569292.276904655620456, 1046469.451897526392713 ], [ 8569447.320189150050282, 1046469.451897526392713 ], [ 8569447.320189150050282, 1046376.425926829921082 ], [ 8569633.372130542993546, 1046376.425926829921082 ], [ 8569633.372130542993546, 1046283.39995613344945 ], [ 8569571.354816745966673, 1046283.39995613344945 ], [ 8569571.354816745966673, 1046128.356671639368869 ], [ 8569137.233620163053274, 1046128.356671639368869 ], [ 8569137.233620163053274, 1045973.313387145288289 ], [ 8568982.190335668623447, 1045973.313387145288289 ], [ 8568982.190335668623447, 1046128.356671639368869 ], [ 8568858.155708072707057, 1046128.356671639368869 ], [ 8568858.155708072707057, 1046283.39995613344945 ], [ 8568548.069139083847404, 1046283.39995613344945 ], [ 8568548.069139083847404, 1046407.434583728783764 ], [ 8568144.956599399447441, 1046407.434583728783764 ], [ 8568144.956599399447441, 1046500.460554425255395 ], [ 8567803.861373512074351, 1046500.460554425255395 ], [ 8567803.861373512074351, 1046190.373985436977819 ], [ 8567431.75749072805047, 1046190.373985436977819 ], [ 8567431.75749072805047, 1046159.365328538231552 ], [ 8567834.870030412450433, 1046159.365328538231552 ], [ 8567834.870030412450433, 1046469.451897526392713 ], [ 8568113.947942500934005, 1046469.451897526392713 ], [ 8568113.947942500934005, 1046376.425926829921082 ], [ 8568517.060482185333967, 1046376.425926829921082 ], [ 8568517.060482185333967, 1046252.391299234703183 ], [ 8568827.147051174193621, 1046252.391299234703183 ], [ 8568827.147051174193621, 1046097.348014740622602 ], [ 8568951.181678770110011, 1046097.348014740622602 ], [ 8568951.181678770110011, 1045942.304730246425606 ], [ 8569168.24227706156671, 1045942.304730246425606 ], [ 8569168.24227706156671, 1046097.348014740622602 ], [ 8569602.363473644480109, 1046097.348014740622602 ], [ 8569602.363473644480109, 1046252.391299234703183 ], [ 8569664.380787441506982, 1046252.391299234703183 ], [ 8569664.380787441506982, 1046407.434583728783764 ], [ 8569478.328846048563719, 1046407.434583728783764 ], [ 8569478.328846048563719, 1046500.460554425255395 ], [ 8569261.268247757107019, 1046500.460554425255395 ], [ 8569261.268247757107019, 1046407.434583728783764 ], [ 8569168.24227706156671, 1046407.434583728783764 ], [ 8569168.24227706156671, 1046717.521152716944925 ], [ 8569137.233620163053274, 1046717.521152716944925 ] ] ] } },
{ "type": "Feature", "properties": { "raster_val": 1 }, "geometry": { "type": "Polygon", "coordinates": [ [ [ 8571772.969456562772393, 1045570.200847460655496 ], [ 8571772.969456562772393, 1045260.114278472377919 ], [ 8571865.995427258312702, 1045260.114278472377919 ], [ 8571865.995427258312702, 1045167.088307775906287 ], [ 8571990.030054854229093, 1045167.088307775906287 ], [ 8571990.030054854229093, 1045043.053680180688389 ], [ 8572176.081996247172356, 1045043.053680180688389 ], [ 8572176.081996247172356, 1044950.027709484216757 ], [ 8572300.116623841226101, 1044950.027709484216757 ], [ 8572300.116623841226101, 1044794.984424990136176 ], [ 8572331.125280741602182, 1044794.984424990136176 ], [ 8572331.125280741602182, 1044981.036366383079439 ], [ 8572207.090653145685792, 1044981.036366383079439 ], [ 8572207.090653145685792, 1045074.062337079434656 ], [ 8572021.038711752742529, 1045074.062337079434656 ], [ 8572021.038711752742529, 1045198.096964674768969 ], [ 8571897.004084156826138, 1045198.096964674768969 ], [ 8571897.004084156826138, 1045291.122935371240601 ], [ 8571803.97811346128583, 1045291.122935371240601 ], [ 8571803.97811346128583, 1045539.192190561792813 ], [ 8571834.986770359799266, 1045539.192190561792813 ], [ 8571834.986770359799266, 1045570.200847460655496 ], [ 8571772.969456562772393, 1045570.200847460655496 ] ] ] } },
{ "type": "Feature", "properties": { "raster_val": 1 }, "geometry": { "type": "Polygon", "coordinates": [ [ [ 8570346.571239216253161, 1045787.261445752345026 ], [ 8570377.579896114766598, 1045787.261445752345026 ], [ 8570377.579896114766598, 1045477.174876764183864 ], [ 8570222.536611620336771, 1045477.174876764183864 ], [ 8570222.536611620336771, 1045384.148906067712232 ], [ 8570284.553925419226289, 1045384.148906067712232 ], [ 8570284.553925419226289, 1045260.114278472377919 ], [ 8570222.536611620336771, 1045260.114278472377919 ], [ 8570222.536611620336771, 1045043.053680180688389 ], [ 8570067.493327125906944, 1045043.053680180688389 ], [ 8570067.493327125906944, 1044732.967111192410812 ], [ 8569974.467356430366635, 1044732.967111192410812 ], [ 8569974.467356430366635, 1044701.958454293664545 ], [ 8569943.458699531853199, 1044701.958454293664545 ], [ 8569943.458699531853199, 1044763.975768091273494 ], [ 8570036.484670227393508, 1044763.975768091273494 ], [ 8570036.484670227393508, 1045074.062337079434656 ], [ 8570191.527954721823335, 1045074.062337079434656 ], [ 8570191.527954721823335, 1045291.122935371240601 ], [ 8570253.545268518850207, 1045291.122935371240601 ], [ 8570253.545268518850207, 1045353.14024916884955 ], [ 8570191.527954721823335, 1045353.14024916884955 ], [ 8570191.527954721823335, 1045508.183533662930131 ], [ 8570346.571239216253161, 1045508.183533662930131 ], [ 8570346.571239216253161, 1045787.261445752345026 ] ] ] } },
{ "type": "Feature", "properties": { "raster_val": 1 }, "geometry": { "type": "Polygon", "coordinates": [ [ [ 8570191.527954721823335, 1044670.949797394801863 ], [ 8570191.527954721823335, 1044639.94114049593918 ], [ 8570501.614523710682988, 1044639.94114049593918 ], [ 8570501.614523710682988, 1044670.949797394801863 ], [ 8570191.527954721823335, 1044670.949797394801863 ] ] ] } }
]
}
