{
"type": "FeatureCollection",
"features": [
{ "type": "Feature", "properties": { "raster_val": 48 }, "geometry": { "type": "Polygon", "coordinates": [ [ [ 8568517.060482185333967, 1054128.590151535114273 ], [ 8569292.276904655620456, 1054128.590151535114273 ], [ 8569292.276904655620456, 1053973.546867040917277 ], [ 8569478.328846048563719, 1053973.546867040917277 ], [ 8569478.328846048563719, 1053880.520896344445646 ], [ 8569664.380787441506982, 1053880.520896344445646 ], [ 8569664.380787441506982, 1053539.425670457538217 ], [ 8569354.294218454509974, 1053539.425670457538217 ], [ 8569354.294218454509974, 1053508.41701355879195 ], [ 8570222.536611620336771, 1053508.41701355879195 ], [ 8570222.536611620336771, 1053415.391042862320319 ], [ 8570284.553925419226289, 1053415.391042862320319 ], [ 8570284.553925419226289, 1052950.261189379962161 ], [ 8570253.545268518850207, 1052950.261189379962161 ], [ 8570253.545268518850207, 1053384.382385963341221 ], [ 8570191.527954721823335, 1053384.382385963341221 ], [ 8570191.527954721823335, 1053477.408356659812853 ], [ 8569323.285561555996537, 1053477.408356659812853 ], [ 8569323.285561555996537, 1053570.434327356284484 ], [ 8569633.372130542993546, 1053570.434327356284484 ], [ 8569633.372130542993546, 1053849.512239445699379 ], [ 8569447.320189150050282, 1053849.512239445699379 ], [ 8569447.320189150050282, 1053942.53821014217101 ], [ 8569261.268247757107019, 1053942.53821014217101 ], [ 8569261.268247757107019, 1054097.581494636368006 ], [ 8568517.060482185333967, 1054097.581494636368006 ], [ 8568517.060482185333967, 1054128.590151535114273 ] ] ] } },
{ "type": "Feature", "properties": { "raster_val": 47 }, "geometry": { "type": "Polygon", "coordinates": [ [ [ 8570191.527954721823335, 1052981.269846278708428 ], [ 8570253.545268518850207, 1052981.269846278708428 ], [ 8570253.545268518850207, 1052950.261189379962161 ], [ 8570222.536611620336771, 1052950.261189379962161 ], [ 8570222.536611620336771, 1052764.209247987018898 ], [ 8570067.493327125906944, 1052764.209247987018898 ], [ 8570067.493327125906944, 1052640.174620391801 ], [ 8569974.467356430366635, 1052640.174620391801 ], [ 8569974.467356430366635, 1052330.088051403407007 ], [ 8569881.441385734826326, 1052330.088051403407007 ], [ 8569881.441385734826326, 1052454.122678998857737 ], [ 8569757.406758138909936, 1052454.122678998857737 ], [ 8569757.406758138909936, 1052330.088051403407007 ], [ 8569695.389444341883063, 1052330.088051403407007 ], [ 8569695.389444341883063, 1052361.096708302386105 ], [ 8569726.3981012403965, 1052361.096708302386105 ], [ 8569726.3981012403965, 1052485.131335897604004 ], [ 8569912.450042633339763, 1052485.131335897604004 ], [ 8569912.450042633339763, 1052361.096708302386105 ], [ 8569943.458699531853199, 1052361.096708302386105 ], [ 8569943.458699531853199, 1052671.183277290547267 ], [ 8570036.484670227393508, 1052671.183277290547267 ], [ 8570036.484670227393508, 1052795.217904885765165 ], [ 8570191.527954721823335, 1052795.217904885765165 ], [ 8570191.527954721823335, 1052981.269846278708428 ] ] ] } },
{ "type": "Feature", "properties": { "raster_val": 41 }, "geometry": { "type": "Polygon", "coordinates": [ [ [ 8566687.549725156277418, 1052609.165963492821902 ], [ 8566873.601666549220681, 1052609.165963492821902 ], [ 8566873.601666549220681, 1052485.131335897604004 ], [ 8566935.618980346247554, 1052485.131335897604004 ], [ 8566935.618980346247554, 1052175.044766909442842 ], [ 8566873.601666549220681, 1052175.044766909442842 ], [ 8566873.601666549220681, 1052051.010139314224944 ], [ 8566935.618980346247554, 1052051.010139314224944 ], [ 8566935.618980346247554, 1051988.992825516499579 ], [ 8566904.610323447734118, 1051988.992825516499579 ], [ 8566904.610323447734118, 1052020.001482415245846 ], [ 8566842.5930096488446, 1052020.001482415245846 ], [ 8566842.5930096488446, 1052206.053423808189109 ], [ 8566904.610323447734118, 1052206.053423808189109 ], [ 8566904.610323447734118, 1052454.122678998857737 ], [ 8566842.5930096488446, 1052454.122678998857737 ], [ 8566842.5930096488446, 1052578.157306594075635 ], [ 8566718.558382054790854, 1052578.157306594075635 ], [ 8566718.558382054790854, 1052454.122678998857737 ], [ 8566563.515097560361028, 1052454.122678998857737 ], [ 8566563.515097560361028, 1052485.131335897604004 ], [ 8566687.549725156277418, 1052485.131335897604004 ], [ 8566687.549725156277418, 1052609.165963492821902 ] ] ] } },
{ "type": "Feature", "properties": { "raster_val": 46 }, "geometry": { "type": "Polygon", "coordinates": [ [ [ 8569633.372130542993546, 1052361.096708302386105 ], [ 8569695.389444341883063, 1052361.096708302386105 ], [ 8569695.389444341883063, 1052330.088051403407007 ], [ 8569664.380787441506982, 1052330.088051403407007 ], [ 8569664.380787441506982, 1052175.044766909442842 ], [ 8569602.363473644480109, 1052175.044766909442842 ], [ 8569602.363473644480109, 1051957.984168617753312 ], [ 8569478.328846048563719, 1051957.984168617753312 ], [ 8569478.328846048563719, 1051864.95819792128168 ], [ 8569354.294218454509974, 1051864.95819792128168 ], [ 8569354.294218454509974, 1051678.906256528338417 ], [ 8569478.328846048563719, 1051678.906256528338417 ], [ 8569478.328846048563719, 1051554.871628932887688 ], [ 8569323.285561555996537, 1051554.871628932887688 ], [ 8569323.285561555996537, 1051585.880285831866786 ], [ 8569447.320189150050282, 1051585.880285831866786 ], [ 8569447.320189150050282, 1051647.89759962935932 ], [ 8569323.285561555996537, 1051647.89759962935932 ], [ 8569323.285561555996537, 1051895.966854820027947 ], [ 8569447.320189150050282, 1051895.966854820027947 ], [ 8569447.320189150050282, 1051988.992825516499579 ], [ 8569571.354816745966673, 1051988.992825516499579 ], [ 8569571.354816745966673, 1052206.053423808189109 ], [ 8569633.372130542993546, 1052206.053423808189109 ], [ 8569633.372130542993546, 1052361.096708302386105 ] ] ] } },
{ "type": "Feature", "properties": { "raster_val": 42 }, "geometry": { "type": "Polygon", "coordinates": [ [ [ 8566904.610323447734118, 1051988.992825516499579 ], [ 8566904.610323447734118, 1051957.984168617753312 ], [ 8566997.636294143274426, 1051957.984168617753312 ], [ 8566997.636294143274426, 1051864.95819792128168 ], [ 8567214.696892434731126, 1051864.95819792128168 ], [ 8567214.696892434731126, 1051740.923570325830951 ], [ 8567524.783461423590779, 1051740.923570325830951 ], [ 8567524.783461423590779, 1051647.89759962935932 ], [ 8567617.809432119131088, 1051647.89759962935932 ], [ 8567617.809432119131088, 1051554.871628932887688 ], [ 8567927.896001107990742, 1051554.871628932887688 ], [ 8567927.896001107990742, 1051368.819687540177256 ], [ 8568113.947942500934005, 1051368.819687540177256 ], [ 8568113.947942500934005, 1051244.785059944726527 ], [ 8568206.973913198336959, 1051244.785059944726527 ], [ 8568206.973913198336959, 1051120.750432349508628 ], [ 8568362.01719769090414, 1051120.750432349508628 ], [ 8568362.01719769090414, 1051151.759089248254895 ], [ 8568237.982570096850395, 1051151.759089248254895 ], [ 8568237.982570096850395, 1051275.793716843705624 ], [ 8568144.956599399447441, 1051275.793716843705624 ], [ 8568144.956599399447441, 1051399.828344438923523 ], [ 8567958.904658006504178, 1051399.828344438923523 ], [ 8567958.904658006504178, 1051585.880285831866786 ], [ 8567648.81808901950717, 1051585.880285831866786 ], [ 8567648.81808901950717, 1051678.906256528338417 ], [ 8567555.792118322104216, 1051678.906256528338417 ], [ 8567555.792118322104216, 1051771.932227224810049 ], [ 8567245.705549335107207, 1051771.932227224810049 ], [ 8567245.705549335107207, 1051895.966854820027947 ], [ 8567028.644951041787863, 1051895.966854820027947 ], [ 8567028.644951041787863, 1051988.992825516499579 ], [ 8566904.610323447734118, 1051988.992825516499579 ] ] ] } },
{ "type": "Feature", "properties": { "raster_val": 45 }, "geometry": { "type": "Polygon", "coordinates": [ [ [ 8568424.034511489793658, 1051585.880285831866786 ], [ 8568703.11242357827723, 1051585.880285831866786 ], [ 8568703.11242357827723, 1051461.845658236416057 ], [ 8569075.216306364163756, 1051461.845658236416057 ], [ 8569075.216306364163756, 1051151.759089248254895 ], [ 8569261.268247757107019, 1051151.759089248254895 ], [ 8569261.268247757107019, 1051461.845658236416057 ], [ 8569323.285561555996537, 1051461.845658236416057 ], [ 8569323.285561555996537, 1051554.871628932887688 ], [ 8569354.294218454509974, 1051554.871628932887688 ], [ 8569354.294218454509974, 1051430.83700133766979 ], [ 8569292.276904655620456, 1051430.83700133766979 ], [ 8569292.276904655620456, 1051151.759089248254895 ], [ 8569354.294218454509974, 1051151.759089248254895 ], [ 8569354.294218454509974, 1051058.733118551783264 ], [ 8569261.268247757107019, 1051058.733118551783264 ], [ 8569261.268247757107019, 1051120.750432349508628 ], [ 8569044.20764946565032, 1051120.750432349508628 ], [ 8569044.20764946565032, 1051430.83700133766979 ], [ 8568672.103766679763794, 1051430.83700133766979 ], [ 8568672.103766679763794, 1051554.871628932887688 ], [ 8568455.043168388307095, 1051554.871628932887688 ], [ 8568455.043168388307095, 1051430.83700133766979 ], [ 8568393.025854591280222, 1051430.83700133766979 ], [ 8568393.025854591280222, 1051461.845658236416057 ], [ 8568424.034511489793658, 1051461.845658236416057 ], [ 8568424.034511489793658, 1051585.880285831866786 ] ], [ [ 8569292.276904655620456, 1051120.750432349508628 ], [ 8569292.276904655620456, 1051089.741775450762361 ], [ 8569323.285561555996537, 1051089.741775450762361 ], [ 8569323.285561555996537, 1051120.750432349508628 ], [ 8569292.276904655620456, 1051120.750432349508628 ] ] ] } },
{ "type": "Feature", "properties": { "raster_val": 43 }, "geometry": { "type": "Polygon", "coordinates": [ [ [ 8568362.01719769090414, 1051151.759089248254895 ], [ 8568362.01719769090414, 1050934.698490956565365 ], [ 8568424.034511489793658, 1050934.698490956565365 ], [ 8568424.034511489793658, 1050810.663863361347467 ], [ 8568517.060482185333967, 1050810.663863361347467 ], [ 8568517.060482185333967, 1050748.646549563622102 ], [ 8568734.121080476790667, 1050748.646549563622102 ], [ 8568734.121080476790667, 1050438.559980575460941 ], [ 8568827.147051174193621, 1050438.559980575460941 ], [ 8568827.147051174193621, 1050345.534009878989309 ], [ 8568982.190335668623447, 1050345.534009878989309 ], [ 8568982.190335668623447, 1050438.559980575460941 ], [ 8569075.216306364163756, 1050438.559980575460941 ], [ 8569075.216306364163756, 1050500.577294373186305 ], [ 8569106.224963262677193, 1050500.577294373186305 ], [ 8569106.224963262677193, 1050531.585951271932572 ], [ 8569044.20764946565032, 1050531.585951271932572 ], [ 8569044.20764946565032, 1050469.568637474207208 ], [ 8568951.181678770110011, 1050469.568637474207208 ], [ 8568951.181678770110011, 1050376.542666777735576 ], [ 8568858.155708072707057, 1050376.542666777735576 ], [ 8568858.155708072707057, 1050469.568637474207208 ], [ 8568765.129737377166748, 1050469.568637474207208 ], [ 8568765.129737377166748, 1050779.655206462368369 ], [ 8568548.069139083847404, 1050779.655206462368369 ], [ 8568548.069139083847404, 1050841.672520260093734 ], [ 8568455.043168388307095, 1050841.672520260093734 ], [ 8568455.043168388307095, 1050965.707147855311632 ], [ 8568393.025854591280222, 1050965.707147855311632 ], [ 8568393.025854591280222, 1051151.759089248254895 ], [ 8568362.01719769090414, 1051151.759089248254895 ] ] ] } },
{ "type": "Feature", "properties": { "raster_val": 44 }, "geometry": { "type": "Polygon", "coordinates": [ [ [ 8568362.01719769090414, 1051461.845658236416057 ], [ 8568393.025854591280222, 1051461.845658236416057 ], [ 8568393.025854591280222, 1051399.828344438923523 ], [ 8568455.043168388307095, 1051399.828344438923523 ], [ 8568455.043168388307095, 1051275.793716843705624 ], [ 8568703.11242357827723, 1051275.793716843705624 ], [ 8568703.11242357827723, 1051151.759089248254895 ], [ 8568765.129737377166748, 1051151.759089248254895 ], [ 8568765.129737377166748, 1050965.707147855311632 ], [ 8568858.155708072707057, 1050965.707147855311632 ], [ 8568858.155708072707057, 1050841.672520260093734 ], [ 8569075.216306364163756, 1050841.672520260093734 ], [ 8569075.216306364163756, 1050779.655206462368369 ], [ 8569168.24227706156671, 1050779.655206462368369 ], [ 8569168.24227706156671, 1050500.577294373186305 ], [ 8569106.224963262677193, 1050500.577294373186305 ], [ 8569106.224963262677193, 1050531.585951271932572 ], [ 8569137.233620163053274, 1050531.585951271932572 ], [ 8569137.233620163053274, 1050748.646549563622102 ], [ 8569044.20764946565032, 1050748.646549563622102 ], [ 8569044.20764946565032, 1050810.663863361347467 ], [ 8568827.147051174193621, 1050810.663863361347467 ], [ 8568827.147051174193621, 1050934.698490956565365 ], [ 8568734.121080476790667, 1050934.698490956565365 ], [ 8568734.121080476790667, 1051120.750432349508628 ], [ 8568672.103766679763794, 1051120.750432349508628 ], [ 8568672.103766679763794, 1051244.785059944726527 ], [ 8568424.034511489793658, 1051244.785059944726527 ], [ 8568424.034511489793658, 1051368.819687540177256 ], [ 8568362.01719769090414, 1051368.819687540177256 ], [ 8568362.01719769090414, 1051461.845658236416057 ] ] ] } },
{ "type": "Feature", "properties": { "raster_val": 145 }, "geometry": { "type": "Polygon", "coordinates": [ [ [ 8569726.3981012403965, 1046810.547123413416557 ], [ 8570222.536611620336771, 1046810.547123413416557 ], [ 8570222.536611620336771, 1046717.521152716944925 ], [ 8570377.579896114766598, 1046717.521152716944925 ], [ 8570377.579896114766598, 1046686.512495818198659 ], [ 8570191.527954721823335, 1046686.512495818198659 ], [ 8570191.527954721823335, 1046779.53846651467029 ], [ 8569757.406758138909936, 1046779.53846651467029 ], [ 8569757.406758138909936, 1046686.512495818198659 ], [ 8569478.328846048563719, 1046686.512495818198659 ], [ 8569478.328846048563719, 1046562.477868222864345 ], [ 8569261.268247757107019, 1046562.477868222864345 ], [ 8569261.268247757107019, 1046686.512495818198659 ], [ 8569168.24227706156671, 1046686.512495818198659 ], [ 8569168.24227706156671, 1046407.434583728783764 ], [ 8569261.268247757107019, 1046407.434583728783764 ], [ 8569261.268247757107019, 1046500.460554425255395 ], [ 8569478.328846048563719, 1046500.460554425255395 ], [ 8569478.328846048563719, 1046407.434583728783764 ], [ 8569447.320189150050282, 1046407.434583728783764 ], [ 8569447.320189150050282, 1046469.451897526392713 ], [ 8569292.276904655620456, 1046469.451897526392713 ], [ 8569292.276904655620456, 1046376.425926829921082 ], [ 8569137.233620163053274, 1046376.425926829921082 ], [ 8569137.233620163053274, 1046717.521152716944925 ], [ 8569292.276904655620456, 1046717.521152716944925 ], [ 8569292.276904655620456, 1046593.486525121727027 ], [ 8569447.320189150050282, 1046593.486525121727027 ], [ 8569447.320189150050282, 1046717.521152716944925 ], [ 8569726.3981012403965, 1046717.521152716944925 ], [ 8569726.3981012403965, 1046810.547123413416557 ] ] ] } },
{ "type": "Feature", "properties": { "raster_val": 144 }, "geometry": { "type": "Polygon", "coordinates": [ [ [ 8570780.69243579916656, 1046717.521152716944925 ], [ 8571121.78766168653965, 1046717.521152716944925 ], [ 8571121.78766168653965, 1046593.486525121727027 ], [ 8571276.830946180969477, 1046593.486525121727027 ], [ 8571276.830946180969477, 1046407.434583728783764 ], [ 8571431.874230675399303, 1046407.434583728783764 ], [ 8571431.874230675399303, 1046283.39995613344945 ], [ 8571493.891544472426176, 1046283.39995613344945 ], [ 8571493.891544472426176, 1046190.373985436977819 ], [ 8571586.91751516982913, 1046190.373985436977819 ], [ 8571586.91751516982913, 1046097.348014740622602 ], [ 8571555.908858269453049, 1046097.348014740622602 ], [ 8571555.908858269453049, 1046159.365328538231552 ], [ 8571462.88288757391274, 1046159.365328538231552 ], [ 8571462.88288757391274, 1046252.391299234703183 ], [ 8571400.865573776885867, 1046252.391299234703183 ], [ 8571400.865573776885867, 1046376.425926829921082 ], [ 8571245.82228928245604, 1046376.425926829921082 ], [ 8571245.82228928245604, 1046562.477868222864345 ], [ 8571090.779004788026214, 1046562.477868222864345 ], [ 8571090.779004788026214, 1046686.512495818198659 ], [ 8570811.701092697679996, 1046686.512495818198659 ], [ 8570811.701092697679996, 1046469.451897526392713 ], [ 8570563.631837507709861, 1046469.451897526392713 ], [ 8570563.631837507709861, 1046562.477868222864345 ], [ 8570346.571239216253161, 1046562.477868222864345 ], [ 8570346.571239216253161, 1046686.512495818198659 ], [ 8570377.579896114766598, 1046686.512495818198659 ], [ 8570377.579896114766598, 1046593.486525121727027 ], [ 8570594.640494406223297, 1046593.486525121727027 ], [ 8570594.640494406223297, 1046500.460554425255395 ], [ 8570780.69243579916656, 1046500.460554425255395 ], [ 8570780.69243579916656, 1046717.521152716944925 ] ] ] } },
{ "type": "Feature", "properties": { "raster_val": 146 }, "geometry": { "type": "Polygon", "coordinates": [ [ [ 8568144.956599399447441, 1046407.434583728783764 ], [ 8568144.956599399447441, 1046376.425926829921082 ], [ 8568517.060482185333967, 1046376.425926829921082 ], [ 8568517.060482185333967, 1046252.391299234703183 ], [ 8568827.147051174193621, 1046252.391299234703183 ], [ 8568827.147051174193621, 1046097.348014740622602 ], [ 8568951.181678770110011, 1046097.348014740622602 ], [ 8568951.181678770110011, 1045942.304730246425606 ], [ 8569168.24227706156671, 1045942.304730246425606 ], [ 8569168.24227706156671, 1046097.348014740622602 ], [ 8569602.363473644480109, 1046097.348014740622602 ], [ 8569602.363473644480109, 1046252.391299234703183 ], [ 8569664.380787441506982, 1046252.391299234703183 ], [ 8569664.380787441506982, 1046407.434583728783764 ], [ 8569447.320189150050282, 1046407.434583728783764 ], [ 8569447.320189150050282, 1046376.425926829921082 ], [ 8569633.372130542993546, 1046376.425926829921082 ], [ 8569633.372130542993546, 1046283.39995613344945 ], [ 8569571.354816745966673, 1046283.39995613344945 ], [ 8569571.354816745966673, 1046128.356671639368869 ], [ 8569137.233620163053274, 1046128.356671639368869 ], [ 8569137.233620163053274, 1045973.313387145288289 ], [ 8568982.190335668623447, 1045973.313387145288289 ], [ 8568982.190335668623447, 1046128.356671639368869 ], [ 8568858.155708072707057, 1046128.356671639368869 ], [ 8568858.155708072707057, 1046283.39995613344945 ], [ 8568548.069139083847404, 1046283.39995613344945 ], [ 8568548.069139083847404, 1046407.434583728783764 ], [ 8568144.956599399447441, 1046407.434583728783764 ] ] ] } },
{ "type": "Feature", "properties": { "raster_val": 148 }, "geometry": { "type": "Polygon", "coordinates": [ [ [ 8566997.636294143274426, 1045694.235475055873394 ], [ 8566997.636294143274426, 1045477.174876764183864 ], [ 8567028.644951041787863, 1045477.174876764183864 ], [ 8567028.644951041787863, 1045694.235475055873394 ], [ 8566997.636294143274426, 1045694.235475055873394 ] ] ] } },
{ "type": "Feature", "properties": { "raster_val": 147 }, "geometry": { "type": "Polygon", "coordinates": [ [ [ 8567803.861373512074351, 1046500.460554425255395 ], [ 8568144.956599399447441, 1046500.460554425255395 ], [ 8568144.956599399447441, 1046376.425926829921082 ], [ 8568113.947942500934005, 1046376.425926829921082 ], [ 8568113.947942500934005, 1046469.451897526392713 ], [ 8567834.870030412450433, 1046469.451897526392713 ], [ 8567834.870030412450433, 1046159.365328538231552 ], [ 8567338.731520030647516, 1046159.365328538231552 ], [ 8567338.731520030647516, 1046097.348014740622602 ], [ 8567152.679578637704253, 1046097.348014740622602 ], [ 8567152.679578637704253, 1045973.313387145288289 ], [ 8567338.731520030647516, 1045973.313387145288289 ], [ 8567338.731520030647516, 1045539.192190561792813 ], [ 8567214.696892434731126, 1045539.192190561792813 ], [ 8567214.696892434731126, 1045663.226818157127127 ], [ 8567028.644951041787863, 1045663.226818157127127 ], [ 8567028.644951041787863, 1045694.235475055873394 ], [ 8567245.705549335107207, 1045694.235475055873394 ], [ 8567245.705549335107207, 1045570.200847460655496 ], [ 8567307.72286313213408, 1045570.200847460655496 ], [ 8567307.72286313213408, 1045942.304730246425606 ], [ 8567121.670921739190817, 1045942.304730246425606 ], [ 8567121.670921739190817, 1046128.356671639368869 ], [ 8567307.72286313213408, 1046128.356671639368869 ], [ 8567307.72286313213408, 1046190.373985436977819 ], [ 8567803.861373512074351, 1046190.373985436977819 ], [ 8567803.861373512074351, 1046500.460554425255395 ] ] ] } },
{ "type": "Feature", "properties": { "raster_val": 152 }, "geometry": { "type": "Polygon", "coordinates": [ [ [ 8567586.800775220617652, 1044981.036366383079439 ], [ 8567586.800775220617652, 1044950.027709484216757 ], [ 8567617.809432119131088, 1044950.027709484216757 ], [ 8567617.809432119131088, 1044919.019052585354075 ], [ 8567648.81808901950717, 1044919.019052585354075 ], [ 8567648.81808901950717, 1044981.036366383079439 ], [ 8567586.800775220617652, 1044981.036366383079439 ] ] ] } },
{ "type": "Feature", "properties": { "raster_val": 141 }, "geometry": { "type": "Polygon", "coordinates": [ [ [ 8571741.960799662396312, 1044981.036366383079439 ], [ 8571741.960799662396312, 1044950.027709484216757 ], [ 8571865.995427258312702, 1044950.027709484216757 ], [ 8571865.995427258312702, 1044981.036366383079439 ], [ 8571741.960799662396312, 1044981.036366383079439 ] ] ] } },
{ "type": "Feature", "properties": { "raster_val": 141 }, "geometry": { "type": "Polygon", "coordinates": [ [ [ 8570346.571239216253161, 1045818.270102651207708 ], [ 8570346.571239216253161, 1045787.261445752345026 ], [ 8570563.631837507709861, 1045787.261445752345026 ], [ 8570563.631837507709861, 1045539.192190561792813 ], [ 8570780.69243579916656, 1045539.192190561792813 ], [ 8570780.69243579916656, 1045260.114278472377919 ], [ 8571090.779004788026214, 1045260.114278472377919 ], [ 8571090.779004788026214, 1045043.053680180688389 ], [ 8571152.796318585053086, 1045043.053680180688389 ], [ 8571152.796318585053086, 1044950.027709484216757 ], [ 8571245.82228928245604, 1044950.027709484216757 ], [ 8571245.82228928245604, 1044857.001738787745126 ], [ 8571400.865573776885867, 1044857.001738787745126 ], [ 8571400.865573776885867, 1044732.967111192410812 ], [ 8571897.004084156826138, 1044732.967111192410812 ], [ 8571897.004084156826138, 1044950.027709484216757 ], [ 8571865.995427258312702, 1044950.027709484216757 ], [ 8571865.995427258312702, 1044763.975768091273494 ], [ 8571431.874230675399303, 1044763.975768091273494 ], [ 8571431.874230675399303, 1044888.010395686607808 ], [ 8571276.830946180969477, 1044888.010395686607808 ], [ 8571276.830946180969477, 1044981.036366383079439 ], [ 8571183.804975483566523, 1044981.036366383079439 ], [ 8571183.804975483566523, 1045074.062337079434656 ], [ 8571121.78766168653965, 1045074.062337079434656 ], [ 8571121.78766168653965, 1045291.122935371240601 ], [ 8570811.701092697679996, 1045291.122935371240601 ], [ 8570811.701092697679996, 1045570.200847460655496 ], [ 8570594.640494406223297, 1045570.200847460655496 ], [ 8570594.640494406223297, 1045818.270102651207708 ], [ 8570346.571239216253161, 1045818.270102651207708 ] ] ] } },
{ "type": "Feature", "properties": { "raster_val": 143 }, "geometry": { "type": "Polygon", "coordinates": [ [ [ 8571586.91751516982913, 1046128.356671639368869 ], [ 8571803.97811346128583, 1046128.356671639368869 ], [ 8571803.97811346128583, 1045973.313387145288289 ], [ 8571897.004084156826138, 1045973.313387145288289 ], [ 8571897.004084156826138, 1045539.192190561792813 ], [ 8571803.97811346128583, 1045539.192190561792813 ], [ 8571803.97811346128583, 1045291.122935371240601 ], [ 8571897.004084156826138, 1045291.122935371240601 ], [ 8571897.004084156826138, 1045198.096964674768969 ], [ 8572021.038711752742529, 1045198.096964674768969 ], [ 8572021.038711752742529, 1045074.062337079434656 ], [ 8572207.090653145685792, 1045074.062337079434656 ], [ 8572207.090653145685792, 1044981.036366383079439 ], [ 8572331.125280741602182, 1044981.036366383079439 ], [ 8572331.125280741602182, 1044639.94114049593918 ], [ 8572300.116623841226101, 1044639.94114049593918 ], [ 8572300.116623841226101, 1044950.027709484216757 ], [ 8572176.081996247172356, 1044950.027709484216757 ], [ 8572176.081996247172356, 1045043.053680180688389 ], [ 8571990.030054854229093, 1045043.053680180688389 ], [ 8571990.030054854229093, 1045167.088307775906287 ], [ 8571865.995427258312702, 1045167.088307775906287 ], [ 8571865.995427258312702, 1045260.114278472377919 ], [ 8571772.969456562772393, 1045260.114278472377919 ], [ 8571772.969456562772393, 1045570.200847460655496 ], [ 8571865.995427258312702, 1045570.200847460655496 ], [ 8571865.995427258312702, 1045942.304730246425606 ], [ 8571772.969456562772393, 1045942.304730246425606 ], [ 8571772.969456562772393, 1046097.348014740622602 ], [ 8571586.91751516982913, 1046097.348014740622602 ], [ 8571586.91751516982913, 1046128.356671639368869 ] ] ] } },
{ "type": "Feature", "properties": { "raster_val": 152 }, "geometry": { "type": "Polygon", "coordinates": [ [ [ 8567524.783461423590779, 1045198.096964674768969 ], [ 8567772.852716613560915, 1045198.096964674768969 ], [ 8567772.852716613560915, 1045074.062337079434656 ], [ 8568237.982570096850395, 1045074.062337079434656 ], [ 8568237.982570096850395, 1044857.001738787745126 ], [ 8568144.956599399447441, 1044857.001738787745126 ], [ 8568144.956599399447441, 1044888.010395686607808 ], [ 8568206.973913198336959, 1044888.010395686607808 ], [ 8568206.973913198336959, 1045043.053680180688389 ], [ 8567741.844059715047479, 1045043.053680180688389 ], [ 8567741.844059715047479, 1045167.088307775906287 ], [ 8567555.792118322104216, 1045167.088307775906287 ], [ 8567555.792118322104216, 1045043.053680180688389 ], [ 8567462.766147626563907, 1045043.053680180688389 ], [ 8567462.766147626563907, 1045074.062337079434656 ], [ 8567524.783461423590779, 1045074.062337079434656 ], [ 8567524.783461423590779, 1045198.096964674768969 ] ] ] } },
{ "type": "Feature", "properties": { "raster_val": 153 }, "geometry": { "type": "Polygon", "coordinates": [ [ [ 8568113.947942500934005, 1044888.010395686607808 ], [ 8568144.956599399447441, 1044888.010395686607808 ], [ 8568144.956599399447441, 1044732.967111192410812 ], [ 8568082.939285602420568, 1044732.967111192410812 ], [ 8568082.939285602420568, 1044639.94114049593918 ], [ 8568051.930628703907132, 1044639.94114049593918 ], [ 8568051.930628703907132, 1044763.975768091273494 ], [ 8568113.947942500934005, 1044763.975768091273494 ], [ 8568113.947942500934005, 1044888.010395686607808 ] ] ] } },
{ "type": "Feature", "properties": { "raster_val": 140 }, "geometry": { "type": "Polygon", "coordinates": [ [ [ 8570346.571239216253161, 1045787.261445752345026 ], [ 8570377.579896114766598, 1045787.261445752345026 ], [ 8570377.579896114766598, 1045477.174876764183864 ], [ 8570222.536611620336771, 1045477.174876764183864 ], [ 8570222.536611620336771, 1045384.148906067712232 ], [ 8570284.553925419226289, 1045384.148906067712232 ], [ 8570284.553925419226289, 1045260.114278472377919 ], [ 8570222.536611620336771, 1045260.114278472377919 ], [ 8570222.536611620336771, 1045043.053680180688389 ], [ 8570067.493327125906944, 1045043.053680180688389 ], [ 8570067.493327125906944, 1044732.967111192410812 ], [ 8569974.467356430366635, 1044732.967111192410812 ], [ 8569974.467356430366635, 1044639.94114049593918 ], [ 8569943.458699531853199, 1044639.94114049593918 ], [ 8569943.458699531853199, 1044763.975768091273494 ], [ 8570036.484670227393508, 1044763.975768091273494 ], [ 8570036.484670227393508, 1045074.062337079434656 ], [ 8570191.527954721823335, 1045074.062337079434656 ], [ 8570191.527954721823335, 1045291.122935371240601 ], [ 8570253.545268518850207, 1045291.122935371240601 ], [ 8570253.545268518850207, 1045353.14024916884955 ], [ 8570191.527954721823335, 1045353.14024916884955 ], [ 8570191.527954721823335, 1045508.183533662930131 ], [ 8570346.571239216253161, 1045508.183533662930131 ], [ 8570346.571239216253161, 1045787.261445752345026 ] ] ] } },
{ "type": "Feature", "properties": { "raster_val": 142 }, "geometry": { "type": "Polygon", "coordinates": [ [ [ 8571710.952142763882875, 1045074.062337079434656 ], [ 8571710.952142763882875, 1044950.027709484216757 ], [ 8571741.960799662396312, 1044950.027709484216757 ], [ 8571741.960799662396312, 1045043.053680180688389 ], [ 8571865.995427258312702, 1045043.053680180688389 ], [ 8571865.995427258312702, 1044950.027709484216757 ], [ 8571990.030054854229093, 1044950.027709484216757 ], [ 8571990.030054854229093, 1044422.88054220424965 ], [ 8572176.081996247172356, 1044422.88054220424965 ], [ 8572176.081996247172356, 1044329.854571507778019 ], [ 8572424.151251437142491, 1044329.854571507778019 ], [ 8572424.151251437142491, 1044422.88054220424965 ], [ 8572517.177222134545445, 1044422.88054220424965 ], [ 8572517.177222134545445, 1044608.932483597192913 ], [ 8572424.151251437142491, 1044608.932483597192913 ], [ 8572424.151251437142491, 1044670.949797394801863 ], [ 8572331.125280741602182, 1044670.949797394801863 ], [ 8572331.125280741602182, 1044639.94114049593918 ], [ 8572393.142594538629055, 1044639.94114049593918 ], [ 8572393.142594538629055, 1044577.923826698330231 ], [ 8572486.168565234169364, 1044577.923826698330231 ], [ 8572486.168565234169364, 1044453.889199103112333 ], [ 8572393.142594538629055, 1044453.889199103112333 ], [ 8572393.142594538629055, 1044360.863228406640701 ], [ 8572207.090653145685792, 1044360.863228406640701 ], [ 8572207.090653145685792, 1044453.889199103112333 ], [ 8572021.038711752742529, 1044453.889199103112333 ], [ 8572021.038711752742529, 1044981.036366383079439 ], [ 8571897.004084156826138, 1044981.036366383079439 ], [ 8571897.004084156826138, 1045074.062337079434656 ], [ 8571710.952142763882875, 1045074.062337079434656 ] ] ] } },
{ "type": "Feature", "properties": { "raster_val": 139 }, "geometry": { "type": "Polygon", "coordinates": [ [ [ 8569974.467356430366635, 1044670.949797394801863 ], [ 8569974.467356430366635, 1044639.94114049593918 ], [ 8570036.484670227393508, 1044639.94114049593918 ], [ 8570036.484670227393508, 1044577.923826698330231 ], [ 8570222.536611620336771, 1044577.923826698330231 ], [ 8570222.536611620336771, 1044639.94114049593918 ], [ 8570470.605866812169552, 1044639.94114049593918 ], [ 8570470.605866812169552, 1044453.889199103112333 ], [ 8570253.545268518850207, 1044453.889199103112333 ], [ 8570253.545268518850207, 1044360.863228406640701 ], [ 8570191.527954721823335, 1044360.863228406640701 ], [ 8570191.527954721823335, 1044267.837257710169069 ], [ 8570346.571239216253161, 1044267.837257710169069 ], [ 8570346.571239216253161, 1044143.802630114834756 ], [ 8570594.640494406223297, 1044143.802630114834756 ], [ 8570594.640494406223297, 1044174.811287013697438 ], [ 8570377.579896114766598, 1044174.811287013697438 ], [ 8570377.579896114766598, 1044298.845914608915336 ], [ 8570222.536611620336771, 1044298.845914608915336 ], [ 8570222.536611620336771, 1044329.854571507778019 ], [ 8570284.553925419226289, 1044329.854571507778019 ], [ 8570284.553925419226289, 1044422.88054220424965 ], [ 8570501.614523710682988, 1044422.88054220424965 ], [ 8570501.614523710682988, 1044670.949797394801863 ], [ 8570191.527954721823335, 1044670.949797394801863 ], [ 8570191.527954721823335, 1044608.932483597192913 ], [ 8570067.493327125906944, 1044608.932483597192913 ], [ 8570067.493327125906944, 1044670.949797394801863 ], [ 8569974.467356430366635, 1044670.949797394801863 ] ] ] } },
{ "type": "Feature", "properties": { "raster_val": 138 }, "geometry": { "type": "Polygon", "coordinates": [ [ [ 8570656.657808205112815, 1044360.863228406640701 ], [ 8570811.701092697679996, 1044360.863228406640701 ], [ 8570811.701092697679996, 1044267.837257710169069 ], [ 8570687.666465103626251, 1044267.837257710169069 ], [ 8570687.666465103626251, 1044174.811287013697438 ], [ 8570811.701092697679996, 1044174.811287013697438 ], [ 8570811.701092697679996, 1044019.768002519616857 ], [ 8570687.666465103626251, 1044019.768002519616857 ], [ 8570687.666465103626251, 1043864.724718025536276 ], [ 8570997.75303409062326, 1043864.724718025536276 ], [ 8570997.75303409062326, 1043833.716061126673594 ], [ 8570656.657808205112815, 1043833.716061126673594 ], [ 8570656.657808205112815, 1044050.776659418363124 ], [ 8570780.69243579916656, 1044050.776659418363124 ], [ 8570780.69243579916656, 1044143.802630114834756 ], [ 8570656.657808205112815, 1044143.802630114834756 ], [ 8570656.657808205112815, 1044267.837257710169069 ], [ 8570594.640494406223297, 1044267.837257710169069 ], [ 8570594.640494406223297, 1044174.811287013697438 ], [ 8570563.631837507709861, 1044174.811287013697438 ], [ 8570563.631837507709861, 1044298.845914608915336 ], [ 8570656.657808205112815, 1044298.845914608915336 ], [ 8570656.657808205112815, 1044360.863228406640701 ] ], [ [ 8570687.666465103626251, 1044329.854571507778019 ], [ 8570687.666465103626251, 1044298.845914608915336 ], [ 8570780.69243579916656, 1044298.845914608915336 ], [ 8570780.69243579916656, 1044329.854571507778019 ], [ 8570687.666465103626251, 1044329.854571507778019 ] ] ] } }
]
}
